PHISAT 2                
1 60470U 24149C   26068.78834181  .00008925  00000+0  31421-3 0  9996
2 60470  97.3806 148.6498 0001175 168.6230 191.5037 15.29548631 86792
STARLINK-36334          
1 67471U 26008AC  26068.40200992  .00042737  00000+0  15508-2 0  9992
2 67471  43.0015 207.2306 0004619 300.6201  59.4195 15.27631199  9525
